{
  "type": "FeatureCollection",
  "features": [
    {
      "type": "Feature",
      "properties": {
        "norad_id": 48859,
        "name": "GPS BIII-5  (PRN 11)",
        "group": "gps-ops",
        "lat": 33.091176033280064,
        "lon": 132.5748498730907,
        "alt_km": 20185.225853325213,
        "timestamp": "2025-12-24T16:52:41.790349+00:00",
        "meta_object_name": "GPS BIII-5  (PRN 11)",
        "meta_object_id": "2021-054A",
        "meta_epoch": "2025-12-08T04:14:32.423424",
        "meta_mean_motion": 2.00553627,
        "meta_eccentricity": 0.0024678,
        "meta_inclination": 55.2581,
        "meta_ra_of_asc_node": 340.1367,
        "meta_arg_of_pericenter": 233.3993,
        "meta_mean_anomaly": 212.8594,
        "meta_ephemeris_type": 0,
        "meta_classification_type": "U",
        "meta_norad_cat_id": 48859,
        "meta_element_set_no": 999,
        "meta_rev_at_epoch": 3292,
        "meta_bstar": 0,
        "meta_mean_motion_dot": -8.6e-07,
        "meta_mean_motion_ddot": 0,
        "tle_line1": "1 48859U 21054A   25342.17676416 -.00000086  00000+0  00000+0 0  9993",
        "tle_line2": "2 48859  55.2581 340.1367 0024678 233.3993 212.8594  2.00553627 32922"
      },
      "geometry": {
        "type": "Point",
        "coordinates": [
          132.5748498730907,
          33.091176033280064
        ]
      }
    },
    {
      "type": "Feature",
      "properties": {
        "norad_id": 55268,
        "name": "GPS BIII-6  (PRN 28)",
        "group": "gps-ops",
        "lat": -0.9705672445425856,
        "lon": -23.956171223470193,
        "alt_km": 20193.192323851687,
        "timestamp": "2025-12-24T16:52:41.790361+00:00",
        "meta_object_name": "GPS BIII-6  (PRN 28)",
        "meta_object_id": "2023-009A",
        "meta_epoch": "2025-12-22T10:59:58.065216",
        "meta_mean_motion": 2.00554901,
        "meta_eccentricity": 0.00037047,
        "meta_inclination": 55.1065,
        "meta_ra_of_asc_node": 155.4638,
        "meta_arg_of_pericenter": 355.7912,
        "meta_mean_anomaly": 4.4255,
        "meta_ephemeris_type": 0,
        "meta_classification_type": "U",
        "meta_norad_cat_id": 55268,
        "meta_element_set_no": 999,
        "meta_rev_at_epoch": 2170,
        "meta_bstar": 0,
        "meta_mean_motion_dot": 7.4e-07,
        "meta_mean_motion_ddot": 0,
        "tle_line1": "1 55268U 23009A   25356.45831094  .00000074  00000+0  00000+0 0  9994",
        "tle_line2": "2 55268  55.1065 155.4638 0003704 355.7912   4.4255  2.00554901 21704"
      },
      "geometry": {
        "type": "Point",
        "coordinates": [
          -23.956171223470193,
          -0.9705672445425856
        ]
      }
    },
    {
      "type": "Feature",
      "properties": {
        "norad_id": 62339,
        "name": "GPS BIII-7  (PRN 01)",
        "group": "gps-ops",
        "lat": -53.41835378631032,
        "lon": -127.5618517751974,
        "alt_km": 20185.888171610724,
        "timestamp": "2025-12-24T16:52:41.790373+00:00",
        "meta_object_name": "GPS BIII-7  (PRN 01)",
        "meta_object_id": "2024-242A",
        "meta_epoch": "2025-12-22T12:02:33.556992",
        "meta_mean_motion": 2.00568132,
        "meta_eccentricity": 0.00128077,
        "meta_inclination": 54.9208,
        "meta_ra_of_asc_node": 341.3454,
        "meta_arg_of_pericenter": 346.2078,
        "meta_mean_anomaly": 123.2241,
        "meta_ephemeris_type": 0,
        "meta_classification_type": "U",
        "meta_norad_cat_id": 62339,
        "meta_element_set_no": 999,
        "meta_rev_at_epoch": 771,
        "meta_bstar": 0,
        "meta_mean_motion_dot": -6.9e-07,
        "meta_mean_motion_ddot": 0,
        "tle_line1": "1 62339U 24242A   25356.50177728 -.00000069  00000+0  00000+0 0  9999",
        "tle_line2": "2 62339  54.9208 341.3454 0012807 346.2078 123.2241  2.00568132  7712"
      },
      "geometry": {
        "type": "Point",
        "coordinates": [
          -127.5618517751974,
          -53.41835378631032
        ]
      }
    },
    {
      "type": "Feature",
      "properties": {
        "norad_id": 64202,
        "name": "GPS BIII-8  (PRN 21)",
        "group": "gps-ops",
        "lat": 55.06508646410029,
        "lon": 124.87872951809982,
        "alt_km": 20187.98404773109,
        "timestamp": "2025-12-24T16:52:41.790386+00:00",
        "meta_object_name": "GPS BIII-8  (PRN 21)",
        "meta_object_id": "2025-116A",
        "meta_epoch": "2025-12-24T05:06:23.734944",
        "meta_mean_motion": 2.0055752,
        "meta_eccentricity": 0.00059658,
        "meta_inclination": 55.1137,
        "meta_ra_of_asc_node": 38.1782,
        "meta_arg_of_pericenter": 310.8419,
        "meta_mean_anomaly": 143.1183,
        "meta_ephemeris_type": 0,
        "meta_classification_type": "U",
        "meta_norad_cat_id": 64202,
        "meta_element_set_no": 999,
        "meta_rev_at_epoch": 436,
        "meta_bstar": 0,
        "meta_mean_motion_dot": -5e-07,
        "meta_mean_motion_ddot": 0,
        "tle_line1": "1 64202U 25116A   25358.21277471 -.00000050  00000+0  00000+0 0  9997",
        "tle_line2": "2 64202  55.1137  38.1782 0005965 310.8419 143.1183  2.00557520  4368"
      },
      "geometry": {
        "type": "Point",
        "coordinates": [
          124.87872951809982,
          55.06508646410029
        ]
      }
    }
  ]
}